CUTE-1 (CO-55)          
1 27844U 03031E   21051.48708264  .00000048  00000-0  41098-4 0  9998
2 27844  98.6827  61.4613 0010825  61.0465 299.1797 14.22289026915359
CUBESAT XI-IV (CO-57)   
1 27848U 03031J   21051.23447100  .00000040  00000-0  38044-4 0  9993
2 27848  98.6887  61.7805 0010802  73.5653 286.6711 14.21868632915157
CUBESAT XI-V            
1 28895U 05043F   21051.33930624  .00000136  00000-0  35068-4 0  9999
2 28895  98.0388 187.2708 0016111 215.5782 144.4348 14.63866494816872
CUTE-1.7+APD II (CO-65) 
1 32785U 08021C   21051.37835262  .00000274  00000-0  35025-4 0  9993
2 32785  97.5993  34.8522 0013888  36.8646 323.3523 14.88634591694755
AAUSAT-II               
1 32788U 08021F   21051.46554621  .00000878  00000-0  84404-4 0  9998
2 32788  97.5005  51.0728 0010349 307.5541  52.4740 14.95394805696372
DELFI-C3 (DO-64)        
1 32789U 08021G   21051.55691377  .00001208  00000-0  81208-4 0  9996
2 32789  97.3911  91.3732 0012078 176.8876 183.2430 15.08505695699208
SEEDS II (CO-66)        
1 32791U 08021J   21051.21458474  .00000255  00000-0  30906-4 0  9991
2 32791  97.5617  40.7108 0013292   4.0144 356.1180 14.91280211695305
SWISSCUBE               
1 35932U 09051B   21051.50128122  .00000134  00000-0  41197-4 0  9991
2 35932  98.6076 247.7915 0008683  87.2604 272.9586 14.56489776605936
BEESAT-1                
1 35933U 09051C   21051.47173822  .00000106  00000-0  34733-4 0  9992
2 35933  98.6051 249.6113 0006875  98.3392 261.8585 14.56553341606004
ITUPSAT1                
1 35935U 09051E   21051.47515440  .00000086  00000-0  30855-4 0  9998
2 35935  98.6156 249.7753 0009191  99.2404 260.9832 14.55690235605750
TISAT 1                 
1 36799U 10035E   21051.46470879  .00000541  00000-0  60044-4 0  9995
2 36799  98.2042 237.5412 0011194 233.6357 126.3828 14.91605526575893
M-CUBED & EXP-1 PRIME   
1 37855U 11061F   21051.53993880  .00001243  00000-0  67572-4 0  9992
2 37855 101.7251 274.3184 0168280  58.3025 303.4471 15.07207286508568
AEROCUBE 4.5A           
1 38767U 12048K   21051.34612486  .00000270  00000-0  37117-4 0  9991
2 38767  64.6661 181.0769 0139768  46.1169 315.1385 14.92587145 78798
AEROCUBE 4.5B           
1 38768U 12048L   21051.27322630  .00000368  00000-0  41830-4 0  9998
2 38768  64.6671 145.3938 0131133  40.4659 320.6116 14.96373858 78959
STRAND-1                
1 39090U 13009E   21051.55888385  .00000024  00000-0  23419-4 0  9992
2 39090  98.4362 256.4485 0007999 266.5137  93.5134 14.35169003418272
SOMP                    
1 39134U 13015E   21051.51080162  .00002072  00000-0  99144-4 0  9994
2 39134  64.8632 192.6076 0008812 222.7354 137.3090 15.22013447433413
BEESAT-3                
1 39135U 13015F   21051.46514807  .00001532  00000-0  82453-4 0  9992
2 39135  64.8652 220.0536 0011959 199.3409 160.7265 15.18928998432873
BEESAT-2                
1 39136U 13015G   21051.48042556  .00001374  00000-0  75838-4 0  9995
2 39136  64.8735 225.9195 0027930 258.7881 101.0105 15.18313897432755
NEE-01 PEGASO           
1 39151U 13018B   21051.21736433  .00000161  00000-0  28153-4 0  9991
2 39151  97.9741 154.4161 0017339  22.5876 337.6095 14.80287355422322
ESTCUBE 1               
1 39161U 13021C   21051.46603783  .00000147  00000-0  30920-4 0  9993
2 39161  97.9461 135.3174 0009734 159.7068 200.4531 14.72425623418533
POPACS 1                
1 39268U 13055D   21051.36512965  .00003126  00000-0  84310-4 0  9990
2 39268  81.0013  33.6608 0607479 204.6160 152.4896 14.41491788383681
POPACS 2                
1 39269U 13055E   21051.37412823  .00003643  00000-0  10439-3 0  9998
2 39269  81.0124  77.6082 0670401 318.6038  36.6124 14.27069063381321
POPACS 3                
1 39270U 13055F   21051.54998765  .00001652  00000-0  49811-4 0  9998
2 39270  81.0139 102.6142 0706152  29.9946 333.9784 14.17919669360279
ZACUBE-1 (TSHEPISOSAT)  
1 39417U 13066B   21051.19773089  .00000205  00000-0  31959-4 0  9991
2 39417  97.5835  41.6688 0058521 184.0988 175.9754 14.81430050391710
WNISAT-1                
1 39423U 13066H   21051.47870145  .00000151  00000-0  39789-4 0  9999
2 39423  97.8007 322.0158 0174538 201.7473 157.6286 14.53187074384445
TRITON-1                
1 39427U 13066M   21051.09535531  .00000277  00000-0  51909-4 0  9995
2 39427  97.7611   4.7591 0113748   6.9002 353.3738 14.68154067387995
GOMX-1                  
1 39430U 13066Q   21051.57958615  .00000189  00000-0  42729-4 0  9996
2 39430  97.8105 341.3872 0151781 122.6834 238.9101 14.59536169385995
CUBEBUG-2 (LO-74)       
1 39440U 13066AA  21051.39170937  .00000220  00000-0  37553-4 0  9995
2 39440  97.6622  26.6147 0078452 255.1768 104.0742 14.76165146389155
NEE-02 KRYSAOR          
1 39441U 13066AB  21051.37020387  .00000142  00000-0  27474-4 0  9991
2 39441  97.6711  23.9859 0080027 265.7924  93.4137 14.75126010388959
FUNCUBE-1 (AO-73)       
1 39444U 13066AE  21051.38797654  .00000249  00000-0  36644-4 0  9990
2 39444  97.5753  44.1859 0057869 174.4165 185.7707 14.82318416390090
UWE-3                   
1 39446U 13066AG  21051.22665670  .00000215  00000-0  35096-4 0  9990
2 39446  97.6247  33.5034 0068726 220.6983 138.9083 14.78698720389183
AEROCUBE 5A             
1 39465U 13072D   21051.53759668  .00005010  00000-0  39591-3 0  9994
2 39465 120.4936 343.4836 0261664 137.5581 224.6024 14.79541171 78038
AEROCUBE 5B             
1 39466U 13072E   21051.21813857  .00007790  00000-0  50285-3 0  9991
2 39466 120.4715  32.8185 0231855 148.1483 213.3828 14.89959579 78446
BRITE-CA1 (TORONTO)     
1 40020U 14033L   21051.47054034  .00000104  00000-0  26125-4 0  9998
2 40020  97.7334 231.5354 0087314   2.1343 358.0217 14.66708851357007
DUCHIFAT-1              
1 40021U 14033M   21051.51592641  .00000559  00000-0  62142-4 0  9998
2 40021  97.9629 350.5532 0012500 183.7207 176.3920 14.91185891362859
NANOSATC-BR1            
1 40024U 14033Q   21051.54594603  .00000414  00000-0  48492-4 0  9996
2 40024  97.9440 346.0983 0011719 188.5341 171.5679 14.90308947362188
QB50P1                  
1 40025U 14033R   21051.52139686  .00000273  00000-0  34789-4 0  9998
2 40025  97.9278 341.9533 0011810 197.0428 163.0394 14.89332904362016
QB50P2                  
1 40032U 14033Y   21051.51610597  .00000276  00000-0  35450-4 0  9999
2 40032  97.9134 338.8320 0011281 193.8445 166.2464 14.88848602361893
PERSEUS-M2              
1 40037U 14033AD  21051.23105254  .00000119  00000-0  19590-4 0  9995
2 40037  97.8909 331.7045 0013461 215.3277 144.7047 14.86627981361473
PERSEUS-M1              
1 40039U 14033AF  21051.50577236  .00000096  00000-0  17120-4 0  9991
2 40039  97.8857 330.4705 0013356 212.6454 147.3937 14.86248801361417
POLYITAN-1              
1 40042U 14033AJ  21051.55744798  .00000458  00000-0  54547-4 0  9995
2 40042  97.9366 342.6978 0014159 188.9439 171.1527 14.89118991361918
TIGRISAT                
1 40043U 14033AK  21051.32932425  .00000142  00000-0  28333-4 0  9991
2 40043  97.6835 261.2202 0058435 277.4466  82.0107 14.74480403358578
AEROCUBE 6A             
1 40045U 14033AM  21051.52479044  .00000217  00000-0  38244-4 0  9993
2 40045  97.7081 268.1103 0056438 267.0173  92.4578 14.75738715358694
AEROCUBE 6B             
1 40046U 14033AN  21051.53453561  .00000303  00000-0  50557-4 0  9998
2 40046  97.6981 267.0984 0055440 265.8199  93.6674 14.75749255358695
UKUBE-1                 
1 40074U 14037F   21051.30044076  .00000392  00000-0  53780-4 0  9994
2 40074  98.4409 260.2975 0005139  52.2437 307.9264 14.84458400358525
BRITE-PL2 (HEWELIUSZ)   
1 40119U 14049B   21051.49296714  .00000121  00000-0  20718-4 0  9990
2 40119  97.8878 147.2298 0017796  23.0929 337.1081 14.84602183352495
FIREBIRD 4              
1 40378U 15003C   21051.31325107  .00004051  00000-0  15208-3 0  9991
2 40378  99.0827 168.3578 0119937 204.7761 154.7682 15.21503574334976
GRIFEX                  
1 40379U 15003D   21051.51594354  .00002395  00000-0  10116-3 0  9998
2 40379  99.0820 158.8950 0129375 234.2068 124.7080 15.17384885334441
CP10 (EXOCUBE)          
1 40380U 15003E   21051.53510517  .00001467  00000-0  67196-4 0  9991
2 40380  99.0862 153.8036 0134637 251.8350 106.8180 15.15165949334106
AEROCUBE 8A             
1 40659U 15025J   21051.18415802  .00040336  00000-0  29209-3 0  9996
2 40659  55.0104 218.6002 0081789 103.9500 257.0654 15.68570761 82264
AEROCUBE 8B             
1 40660U 15025K   21051.59785992  .00044103  00000-0  31113-3 0  9996
2 40660  55.0071 213.7047 0080173 107.5684 253.4137 15.69285061 82356
TIANWANG 1C (TW-1C)     
1 40926U 15051B   21051.62541666  .00672066  23115-3  87693-3 0  9996
2 40926  97.0283 114.1942 0004750 218.4217 297.4928 16.07027119306111
TIANWANG 1A (TW-1A)     
1 40928U 15051D   21051.52809579  .00004529  00000-0  99196-4 0  9997
2 40928  97.0892  79.2647 0010012  13.2179 142.1302 15.44560858303636
EXACTVIEW 9             
1 40936U 15052G   21051.32152927  .00000796  00000-0  22038-4 0  9996
2 40936   6.0047  12.7465 0010504 174.6875 185.3365 14.76654981291851
AEROCUBE 5C             
1 40965U 15058B   21051.44688538  .00000083  00000-0  28430-4 0  9990
2 40965  64.7771 112.7225 0193123 347.1700  12.4525 14.74669685 77873
AEROCUBE 7              
1 40966U 15058C   21051.57769207  .00000169  00000-0  37673-4 0  9992
2 40966  64.7771 110.4404 0192111 346.7790  12.8315 14.75003619 77903
ATHENOXAT 1             
1 41168U 15077C   21051.33542824  .00002726  00000-0  10460-3 0  9991
2 41168  14.9888  41.7553 0011250 341.0047 235.3769 15.15197943286986
GALASSIA                
1 41170U 15077E   21051.56113706  .00002324  00000-0  83095-4 0  9991
2 41170  14.9898  31.1308 0012227  12.4140 347.6481 15.15456743287007
VELOX-II                
1 41171U 15077F   21051.30761768  .00001757  00000-0  60776-4 0  9991
2 41171  14.9918  86.1860 0008570 247.6835 112.2577 15.12228758286543
